STARLINK-35865          
1 67826U 26033F   26068.94310343  .00283558  00000+0  12998-2 0  9993
2 67826  42.9983 269.9180 0002081 256.8542 103.2098 15.82109633  4661
STARLINK-36289          
1 67827U 26033G   26069.00548701  .00245532  00000+0  11315-2 0  9995
2 67827  42.9984 269.5261 0001981 259.3302 100.7347 15.82096406  4672
STARLINK-36670          
1 67828U 26033H   26069.00473787  .00319094  00000+0  14558-2 0  9994
2 67828  42.9986 269.5204 0001917 268.9440  91.1212 15.82118030  4672
STARLINK-36144          
1 67829U 26033J   26069.00398803  .00247513  00000+0  11404-2 0  9993
2 67829  42.9982 269.5129 0002046 270.4429  89.6209 15.82096351  4673
STARLINK-36611          
1 67830U 26033K   26069.00323776  .00297355  00000+0  13603-2 0  9994
2 67830  42.9985 269.5079 0002078 270.8262  89.2372 15.82116873  4675
STARLINK-36661          
1 67831U 26033L   26069.00249023  .00297350  00000+0  13608-2 0  9997
2 67831  42.9981 269.5016 0002601 265.6555  94.4019 15.82108507  4673
STARLINK-36662          
1 67832U 26033M   26069.00300225  .00430292  00000+0  17264-2 0  9996
2 67832  42.9967 268.5958 0001757 280.0009  80.0665 15.84554280  4682
STARLINK-36659          
1 67833U 26033N   26069.00173841  .00263674  00000+0  12113-2 0  9995
2 67833  42.9982 269.4952 0002264 257.0096 103.0523 15.82114874  4675
STARLINK-36655          
1 67834U 26033P   26069.00098857  .00225674  00000+0  10423-2 0  9999
2 67834  42.9981 269.4888 0002381 246.5448 113.5173 15.82102698  4675
STARLINK-36657          
1 67835U 26033Q   26069.00024115  .00319362  00000+0  14565-2 0  9995
2 67835  42.9983 269.4839 0001919 284.7569  75.3090 15.82124307  4672
STARLINK-36650          
1 67836U 26033R   26068.99949045  .00242673  00000+0  11183-2 0  9994
2 67836  42.9981 269.4762 0002202 262.4321  97.6301 15.82105397  4671
STARLINK-36649          
1 67837U 26033S   26068.99874055  .00342361  00000+0  15563-2 0  9994
2 67837  42.9978 269.4701 0002051 263.4028  96.6610 15.82135357  4679
