CCSDS_OMM_VERS = 2.0
CREATION_DATE  = 
ORIGINATOR     = 

OBJECT_NAME    = STARLINK-35865
OBJECT_ID      = 2026-033F
CENTER_NAME    = EARTH
REF_FRAME      = TEME
TIME_SYSTEM    = UTC
MEAN_ELEMENT_THEORY = SGP/SGP4

EPOCH          = 2026-03-09T22:38:04.136352
MEAN_MOTION    = 15.82109633
ECCENTRICITY   = .0002081
INCLINATION    = 42.9983
RA_OF_ASC_NODE = 269.9180
ARG_OF_PERICENTER = 256.8542
MEAN_ANOMALY   = 103.2098

EPHEMERIS_TYPE = 0
CLASSIFICATION_TYPE = U
NORAD_CAT_ID   = 67826
ELEMENT_SET_NO = 999
REV_AT_EPOCH   = 466
BSTAR          = .12998E-2
MEAN_MOTION_DOT = .283558E-2
MEAN_MOTION_DDOT = 0

CCSDS_OMM_VERS = 2.0
CREATION_DATE  = 
ORIGINATOR     = 

OBJECT_NAME    = STARLINK-36289
OBJECT_ID      = 2026-033G
CENTER_NAME    = EARTH
REF_FRAME      = TEME
TIME_SYSTEM    = UTC
MEAN_ELEMENT_THEORY = SGP/SGP4

EPOCH          = 2026-03-10T00:07:54.077664
MEAN_MOTION    = 15.82096406
ECCENTRICITY   = .00019819
INCLINATION    = 42.9984
RA_OF_ASC_NODE = 269.5261
ARG_OF_PERICENTER = 259.3302
MEAN_ANOMALY   = 100.7347

EPHEMERIS_TYPE = 0
CLASSIFICATION_TYPE = U
NORAD_CAT_ID   = 67827
ELEMENT_SET_NO = 999
REV_AT_EPOCH   = 467
BSTAR          = .1131538E-2
MEAN_MOTION_DOT = .245532E-2
MEAN_MOTION_DDOT = 0

CCSDS_OMM_VERS = 2.0
CREATION_DATE  = 
ORIGINATOR     = 

OBJECT_NAME    = STARLINK-36670
OBJECT_ID      = 2026-033H
CENTER_NAME    = EARTH
REF_FRAME      = TEME
TIME_SYSTEM    = UTC
MEAN_ELEMENT_THEORY = SGP/SGP4

EPOCH          = 2026-03-10T00:06:49.351968
MEAN_MOTION    = 15.82118030
ECCENTRICITY   = .00019171
INCLINATION    = 42.9986
RA_OF_ASC_NODE = 269.5204
ARG_OF_PERICENTER = 268.9440
MEAN_ANOMALY   = 91.1212

EPHEMERIS_TYPE = 0
CLASSIFICATION_TYPE = U
NORAD_CAT_ID   = 67828
ELEMENT_SET_NO = 999
REV_AT_EPOCH   = 467
BSTAR          = .14557959E-2
MEAN_MOTION_DOT = .319094E-2
MEAN_MOTION_DDOT = 0

CCSDS_OMM_VERS = 2.0
CREATION_DATE  = 
ORIGINATOR     = 

OBJECT_NAME    = STARLINK-36144
OBJECT_ID      = 2026-033J
CENTER_NAME    = EARTH
REF_FRAME      = TEME
TIME_SYSTEM    = UTC
MEAN_ELEMENT_THEORY = SGP/SGP4

EPOCH          = 2026-03-10T00:05:44.565792
MEAN_MOTION    = 15.82096351
ECCENTRICITY   = .00020464
INCLINATION    = 42.9982
RA_OF_ASC_NODE = 269.5129
ARG_OF_PERICENTER = 270.4429
MEAN_ANOMALY   = 89.6209

EPHEMERIS_TYPE = 0
CLASSIFICATION_TYPE = U
NORAD_CAT_ID   = 67829
ELEMENT_SET_NO = 999
REV_AT_EPOCH   = 467
BSTAR          = .11403799E-2
MEAN_MOTION_DOT = .247513E-2
MEAN_MOTION_DDOT = 0

CCSDS_OMM_VERS = 2.0
CREATION_DATE  = 
ORIGINATOR     = 

OBJECT_NAME    = STARLINK-36611
OBJECT_ID      = 2026-033K
CENTER_NAME    = EARTH
REF_FRAME      = TEME
TIME_SYSTEM    = UTC
MEAN_ELEMENT_THEORY = SGP/SGP4

EPOCH          = 2026-03-10T00:04:39.742464
MEAN_MOTION    = 15.82116873
ECCENTRICITY   = .00020785
INCLINATION    = 42.9985
RA_OF_ASC_NODE = 269.5079
ARG_OF_PERICENTER = 270.8262
MEAN_ANOMALY   = 89.2372

EPHEMERIS_TYPE = 0
CLASSIFICATION_TYPE = U
NORAD_CAT_ID   = 67830
ELEMENT_SET_NO = 999
REV_AT_EPOCH   = 467
BSTAR          = .13602947E-2
MEAN_MOTION_DOT = .297355E-2
MEAN_MOTION_DDOT = 0

CCSDS_OMM_VERS = 2.0
CREATION_DATE  = 
ORIGINATOR     = 

OBJECT_NAME    = STARLINK-36661
OBJECT_ID      = 2026-033L
CENTER_NAME    = EARTH
REF_FRAME      = TEME
TIME_SYSTEM    = UTC
MEAN_ELEMENT_THEORY = SGP/SGP4

EPOCH          = 2026-03-10T00:03:35.155872
MEAN_MOTION    = 15.82108507
ECCENTRICITY   = .00026016
INCLINATION    = 42.9981
RA_OF_ASC_NODE = 269.5016
ARG_OF_PERICENTER = 265.6555
MEAN_ANOMALY   = 94.4019

EPHEMERIS_TYPE = 0
CLASSIFICATION_TYPE = U
NORAD_CAT_ID   = 67831
ELEMENT_SET_NO = 999
REV_AT_EPOCH   = 467
BSTAR          = .13607558E-2
MEAN_MOTION_DOT = .29735E-2
MEAN_MOTION_DDOT = 0

CCSDS_OMM_VERS = 2.0
CREATION_DATE  = 
ORIGINATOR     = 

OBJECT_NAME    = STARLINK-36662
OBJECT_ID      = 2026-033M
CENTER_NAME    = EARTH
REF_FRAME      = TEME
TIME_SYSTEM    = UTC
MEAN_ELEMENT_THEORY = SGP/SGP4

EPOCH          = 2026-03-10T00:04:19.394400
MEAN_MOTION    = 15.84554280
ECCENTRICITY   = .00017578
INCLINATION    = 42.9967
RA_OF_ASC_NODE = 268.5958
ARG_OF_PERICENTER = 280.0009
MEAN_ANOMALY   = 80.0665

EPHEMERIS_TYPE = 0
CLASSIFICATION_TYPE = U
NORAD_CAT_ID   = 67832
ELEMENT_SET_NO = 999
REV_AT_EPOCH   = 468
BSTAR          = .17264449E-2
MEAN_MOTION_DOT = .430292E-2
MEAN_MOTION_DDOT = 0

CCSDS_OMM_VERS = 2.0
CREATION_DATE  = 
ORIGINATOR     = 

OBJECT_NAME    = STARLINK-36659
OBJECT_ID      = 2026-033N
CENTER_NAME    = EARTH
REF_FRAME      = TEME
TIME_SYSTEM    = UTC
MEAN_ELEMENT_THEORY = SGP/SGP4

EPOCH          = 2026-03-10T00:02:30.198624
MEAN_MOTION    = 15.82114874
ECCENTRICITY   = .00022645
INCLINATION    = 42.9982
RA_OF_ASC_NODE = 269.4952
ARG_OF_PERICENTER = 257.0096
MEAN_ANOMALY   = 103.0523

EPHEMERIS_TYPE = 0
CLASSIFICATION_TYPE = U
NORAD_CAT_ID   = 67833
ELEMENT_SET_NO = 999
REV_AT_EPOCH   = 467
BSTAR          = .12113314E-2
MEAN_MOTION_DOT = .263674E-2
MEAN_MOTION_DDOT = 0

CCSDS_OMM_VERS = 2.0
CREATION_DATE  = 
ORIGINATOR     = 

OBJECT_NAME    = STARLINK-36655
OBJECT_ID      = 2026-033P
CENTER_NAME    = EARTH
REF_FRAME      = TEME
TIME_SYSTEM    = UTC
MEAN_ELEMENT_THEORY = SGP/SGP4

EPOCH          = 2026-03-10T00:01:25.412448
MEAN_MOTION    = 15.82102698
ECCENTRICITY   = .00023814
INCLINATION    = 42.9981
RA_OF_ASC_NODE = 269.4888
ARG_OF_PERICENTER = 246.5448
MEAN_ANOMALY   = 113.5173

EPHEMERIS_TYPE = 0
CLASSIFICATION_TYPE = U
NORAD_CAT_ID   = 67834
ELEMENT_SET_NO = 999
REV_AT_EPOCH   = 467
BSTAR          = .10422886E-2
MEAN_MOTION_DOT = .225674E-2
MEAN_MOTION_DDOT = 0

CCSDS_OMM_VERS = 2.0
CREATION_DATE  = 
ORIGINATOR     = 

OBJECT_NAME    = STARLINK-36657
OBJECT_ID      = 2026-033Q
CENTER_NAME    = EARTH
REF_FRAME      = TEME
TIME_SYSTEM    = UTC
MEAN_ELEMENT_THEORY = SGP/SGP4

EPOCH          = 2026-03-10T00:00:20.835360
MEAN_MOTION    = 15.82124307
ECCENTRICITY   = .00019198
INCLINATION    = 42.9983
RA_OF_ASC_NODE = 269.4839
ARG_OF_PERICENTER = 284.7569
MEAN_ANOMALY   = 75.3090

EPHEMERIS_TYPE = 0
CLASSIFICATION_TYPE = U
NORAD_CAT_ID   = 67835
ELEMENT_SET_NO = 999
REV_AT_EPOCH   = 467
BSTAR          = .14565401E-2
MEAN_MOTION_DOT = .319362E-2
MEAN_MOTION_DDOT = 0

CCSDS_OMM_VERS = 2.0
CREATION_DATE  = 
ORIGINATOR     = 

OBJECT_NAME    = STARLINK-36650
OBJECT_ID      = 2026-033R
CENTER_NAME    = EARTH
REF_FRAME      = TEME
TIME_SYSTEM    = UTC
MEAN_ELEMENT_THEORY = SGP/SGP4

EPOCH          = 2026-03-09T23:59:15.974880
MEAN_MOTION    = 15.82105397
ECCENTRICITY   = .00022022
INCLINATION    = 42.9981
RA_OF_ASC_NODE = 269.4762
ARG_OF_PERICENTER = 262.4321
MEAN_ANOMALY   = 97.6301

EPHEMERIS_TYPE = 0
CLASSIFICATION_TYPE = U
NORAD_CAT_ID   = 67836
ELEMENT_SET_NO = 999
REV_AT_EPOCH   = 467
BSTAR          = .11182742E-2
MEAN_MOTION_DOT = .242673E-2
MEAN_MOTION_DDOT = 0

CCSDS_OMM_VERS = 2.0
CREATION_DATE  = 
ORIGINATOR     = 

OBJECT_NAME    = STARLINK-36649
OBJECT_ID      = 2026-033S
CENTER_NAME    = EARTH
REF_FRAME      = TEME
TIME_SYSTEM    = UTC
MEAN_ELEMENT_THEORY = SGP/SGP4

EPOCH          = 2026-03-09T23:58:11.183520
MEAN_MOTION    = 15.82135357
ECCENTRICITY   = .00020513
INCLINATION    = 42.9978
RA_OF_ASC_NODE = 269.4701
ARG_OF_PERICENTER = 263.4028
MEAN_ANOMALY   = 96.6610

EPHEMERIS_TYPE = 0
CLASSIFICATION_TYPE = U
NORAD_CAT_ID   = 67837
ELEMENT_SET_NO = 999
REV_AT_EPOCH   = 467
BSTAR          = .15562667E-2
MEAN_MOTION_DOT = .342361E-2
MEAN_MOTION_DDOT = 0

